NORAD_CAT_ID,OBJECT_NAME,OBJECT_TYPE,EPOCH,MEAN_MOTION,ECCENTRICITY,INCLINATION,RA_OF_ASC_NODE,ARG_OF_PERICENTER,MEAN_ANOMALY,BSTAR,MEAN_MOTION_DOT,MEAN_MOTION_DDOT,TLE_LINE0,TLE_LINE1,TLE_LINE2,SEMIMAJOR_AXIS,PERIOD,APOGEE,PERIGEE,DECAYED
52496.0,STARLINK-3871,PAYLOAD,2023-05-07 22:08:49,15.08833944,0.0001193,53.2176,18.3485,93.1579,266.955,-4.7627e-05,-1.046e-05,0.0,0 STARLINK-3871,1 52496U 22049AX  23127.92279117 -.00001046  00000-0 -47627-4 0  9999,2 52496  53.2176  18.3485 0001193  93.1579 266.9550 15.08833944 55940,6917.899,95.438,540.589,538.939,0.0
52496.0,STARLINK-3871,PAYLOAD,2023-05-08 09:16:30,15.08839004,0.0001042,53.2169,16.2704,85.9271,274.184,3.2317e-05,2.27e-06,0.0,0 STARLINK-3871,1 52496U 22049AX  23128.38646659  .00000227  00000-0  32317-4 0  9997,2 52496  53.2169  16.2704 0001042  85.9271 274.1840 15.08839004 56019,6917.883,95.438,540.469,539.028,0.0
52496.0,STARLINK-3871,PAYLOAD,2023-05-08 21:59:35,15.08841579,0.0001031,53.2167,13.8915,91.3636,268.7474,1.0039e-05,-1.28e-06,0.0,0 STARLINK-3871,1 52496U 22049AX  23128.91638716 -.00000128  00000-0  10039-4 0  9999,2 52496  53.2167  13.8915 0001031  91.3636 268.7474 15.08841579 56098,6917.876,95.437,540.454,539.027,0.0
52496.0,STARLINK-3871,PAYLOAD,2023-05-09 02:45:44,15.08847258,0.0001081,53.2169,12.9997,98.5997,261.5118,7.0502e-05,8.35e-06,0.0,0 STARLINK-3871,1 52496U 22049AX  23129.11510167  .00000835  00000-0  70502-4 0  9996,2 52496  53.2169  12.9997 0001081  98.5997 261.5118 15.08847258 56124,6917.858,95.437,540.471,538.975,0.0
52496.0,STARLINK-3871,PAYLOAD,2023-05-09 23:25:46,15.08841161,0.0001054,53.2173,9.1333,84.8757,275.2355,8.291e-05,1.032e-05,0.0,0 STARLINK-3871,1 52496U 22049AX  23129.97622795  .00001032  00000-0  82910-4 0  9997,2 52496  53.2173   9.1333 0001054  84.8757 275.2355 15.08841161 56259,6917.877,95.437,540.471,539.013,0.0
52496.0,STARLINK-3871,PAYLOAD,2023-05-10 21:41:10,15.08841869,0.000114,53.2179,4.973,86.4799,273.6324,6.3103e-05,7.17e-06,0.0,0 STARLINK-3871,1 52496U 22049AX  23130.90358900  .00000717  00000-0  63103-4 0  9998,2 52496  53.2179   4.9730 0001140  86.4799 273.6324 15.08841869 56397,6917.875,95.437,540.528,538.951,0.0
52496.0,STARLINK-3871,PAYLOAD,2023-05-10 23:16:33,15.08847266,0.000125,53.2171,4.6764,119.3088,240.8029,1.8086e-05,0.0,0.0,0 STARLINK-3871,1 52496U 22049AX  23130.96982639  .00000000  00000-0  18086-4 0  9991,2 52496  53.2171   4.6764 0001250 119.3088 240.8029 15.08847266 56409,6917.858,95.437,540.588,538.858,0.0
52496.0,STARLINK-3871,PAYLOAD,2023-05-11 21:31:57,15.08838046,0.0001171,53.2174,0.5108,84.2567,275.8559,8.8255e-06,-1.47e-06,0.0,0 STARLINK-3871,1 52496U 22049AX  23131.89719463 -.00000147  00000-0  88255-5 0  9996,2 52496  53.2174   0.5108 0001171  84.2567 275.8559 15.08838046 56540,6917.886,95.438,540.561,538.941,0.0
52496.0,STARLINK-3871,PAYLOAD,2023-05-12 21:22:43,15.08849324,9.75e-05,53.2169,356.0478,89.5652,270.5452,9.6386e-05,1.247e-05,0.0,0 STARLINK-3871,1 52496U 22049AX  23132.89078576  .00001247  00000-0  96386-4 0  9994,2 52496  53.2169 356.0478 0000975  89.5652 270.5452 15.08849324 56698,6917.852,95.437,540.391,539.042,0.0
52496.0,STARLINK-3871,PAYLOAD,2023-05-13 21:13:30,15.08854908,9.19e-05,53.2159,351.5899,73.9851,286.1242,0.00019494,2.817e-05,0.0,0 STARLINK-3871,1 52496U 22049AX  23133.88438118  .00002817  00000-0  19494-3 0  9994,2 52496  53.2159 351.5899 0000919  73.9851 286.1242 15.08854908 56841,6917.835,95.437,540.336,539.064,0.0
52496.0,STARLINK-3871,PAYLOAD,2023-05-14 21:04:16,15.08862254,0.0001057,53.2168,347.1287,69.336,290.7745,0.00010408,1.37e-05,0.0,0 STARLINK-3871,1 52496U 22049AX  23134.87797025  .00001370  00000-0  10408-3 0  9998,2 52496  53.2168 347.1287 0001057  69.3360 290.7745 15.08862254 56999,6917.812,95.436,540.409,538.946,0.0
52496.0,STARLINK-3871,PAYLOAD,2023-05-15 06:36:36,15.08847221,6.91e-05,53.2151,345.3444,73.7138,286.393,-2.0777e-05,-6.18e-06,0.0,0 STARLINK-3871,1 52496U 22049AX  23135.27541955 -.00000618  00000-0 -20777-4 0  9999,2 52496  53.2151 345.3444 0000691  73.7138 286.3930 15.08847221 57053,6917.858,95.437,540.201,539.245,0.0
52496.0,STARLINK-3871,PAYLOAD,2023-05-15 14:33:33,15.0883739,0.0001516,53.2156,343.8556,90.2495,269.8671,-0.0001533,-2.727e-05,0.0,0 STARLINK-3871,1 52496U 22049AX  23135.60663488 -.00002727  00000-0 -15330-3 0  9993,2 52496  53.2156 343.8556 0001516  90.2495 269.8671 15.08837390 57102,6917.888,95.438,540.802,538.705,0.0
52496.0,STARLINK-3871,PAYLOAD,2023-05-15 20:55:06,15.08830083,0.0001008,53.2157,342.6694,108.7135,251.3966,-0.00018922,-3.297e-05,0.0,0 STARLINK-3871,1 52496U 22049AX  23135.87160043 -.00003297  00000-0 -18922-3 0  9994,2 52496  53.2157 342.6694 0001008 108.7135 251.3966 15.08830083 57144,6917.911,95.438,540.473,539.078,0.0
52496.0,STARLINK-3871,PAYLOAD,2023-05-16 14:24:20,15.08837849,9.73e-05,53.2166,339.3963,112.5751,247.5344,-0.00010178,-1.907e-05,0.0,0 STARLINK-3871,1 52496U 22049AX  23136.60023509 -.00001907  00000-0 -10178-3 0  9992,2 52496  53.2166 339.3963 0000973 112.5751 247.5344 15.08837849 57259,6917.887,95.438,540.425,539.079,0.0
52496.0,STARLINK-3871,PAYLOAD,2023-05-16 20:45:52,15.08840838,8.01e-05,53.2153,338.2082,105.8222,254.2858,-2.5352e-05,-6.91e-06,0.0,0 STARLINK-3871,1 52496U 22049AX  23136.86519142 -.00000691  00000-0 -25352-4 0  9993,2 52496  53.2153 338.2082 0000801 105.8222 254.2858 15.08840838 57294,6917.878,95.438,540.297,539.189,0.0
52496.0,STARLINK-3871,PAYLOAD,2023-05-17 03:07:24,15.08849176,8.69e-05,53.2161,337.0174,109.7995,250.3091,-2.8182e-06,-3.33e-06,0.0,0 STARLINK-3871,1 52496U 22049AX  23137.13014541 -.00000333  00000-0 -28182-5 0  9995,2 52496  53.2161 337.0174 0000869 109.7995 250.3091 15.08849176 57331,6917.852,95.437,540.319,539.116,0.0
52496.0,STARLINK-3871,PAYLOAD,2023-05-17 04:42:48,15.08837519,9.05e-05,53.216,336.7196,99.8409,260.2686,-0.00010339,-1.933e-05,0.0,0 STARLINK-3871,1 52496U 22049AX  23137.19639506 -.00001933  00000-0 -10339-3 0  9995,2 52496  53.2160 336.7196 0000905  99.8409 260.2686 15.08837519 57349,6917.888,95.438,540.379,539.127,0.0
52496.0,STARLINK-3871,PAYLOAD,2023-05-17 20:36:40,15.08842892,8.17e-05,53.2153,333.7465,112.8905,247.2174,0.00037833,5.739e-05,0.0,0 STARLINK-3871,1 52496U 22049AX  23137.85879759  .00005739  00000-0  37833-3 0  9998,2 52496  53.2153 333.7465 0000817 112.8905 247.2174 15.08842892 57444,6917.872,95.437,540.302,539.171,0.0
52496.0,STARLINK-3871,PAYLOAD,2023-05-18 12:30:31,15.08837608,8.32e-05,53.2146,330.7726,97.6282,262.4805,0.00032612,4.906e-05,0.0,0 STARLINK-3871,1 52496U 22049AX  23138.52120131  .00004906  00000-0  32612-3 0  9991,2 52496  53.2146 330.7726 0000832  97.6282 262.4805 15.08837608 57548,6917.888,95.438,540.328,539.177,0.0
52496.0,STARLINK-3871,PAYLOAD,2023-05-18 22:02:50,15.08840918,7.77e-05,53.2151,328.9884,96.2164,263.8917,0.00031826,4.781e-05,0.0,0 STARLINK-3871,1 52496U 22049AX  23138.91864157  .00004781  00000-0  31826-3 0  9994,2 52496  53.2151 328.9884 0000777  96.2164 263.8917 15.08840918 57604,6917.878,95.437,540.28,539.205,0.0
52496.0,STARLINK-3871,PAYLOAD,2023-05-19 18:42:51,15.08849202,7.56e-05,53.2156,325.1222,92.2311,267.8767,0.0003223,4.847e-05,0.0,0 STARLINK-3871,1 52496U 22049AX  23139.77975913  .00004847  00000-0  32230-3 0  9995,2 52496  53.2156 325.1222 0000756  92.2311 267.8767 15.08849202 57737,6917.852,95.437,540.24,539.194,0.0
52496.0,STARLINK-3871,PAYLOAD,2023-05-19 21:53:37,15.08852646,7.75e-05,53.2156,324.5275,90.8741,269.234,0.00037497,5.687e-05,0.0,0 STARLINK-3871,1 52496U 22049AX  23139.91223747  .00005687  00000-0  37497-3 0  9995,2 52496  53.2156 324.5275 0000775  90.8741 269.2340 15.08852646 57751,6917.842,95.437,540.243,539.171,0.0
52496.0,STARLINK-3871,PAYLOAD,2023-05-20 18:33:37,15.08855891,0.0001028,53.2138,320.6601,87.0755,273.0354,0.00038081,5.781e-05,0.0,0 STARLINK-3871,1 52496U 22049AX  23140.77335542  .00005781  00000-0  38081-3 0  9993,2 52496  53.2138 320.6601 0001028  87.0755 273.0354 15.08855891 57883,6917.832,95.437,540.408,538.986,0.0
52496.0,STARLINK-3871,PAYLOAD,2023-05-21 12:02:53,15.08838329,7.99e-05,53.2154,317.3896,70.7905,289.3174,3.2601e-05,2.31e-06,0.0,0 STARLINK-3871,1 52496U 22049AX  23141.50200251  .00000231  00000-0  32601-4 0  9991,2 52496  53.2154 317.3896 0000799  70.7905 289.3174 15.08838329 57999,6917.885,95.438,540.303,539.198,0.0
52496.0,STARLINK-3871,PAYLOAD,2023-05-21 18:24:25,15.08831217,6e-05,53.216,316.2004,85.1332,274.9729,-8.1613e-05,-1.586e-05,0.0,0 STARLINK-3871,1 52496U 22049AX  23141.76696579 -.00001586  00000-0 -81613-4 0  9994,2 52496  53.2160 316.2004 0000600  85.1332 274.9729 15.08831217 58031,6917.907,95.438,540.187,539.357,0.0
52496.0,STARLINK-3871,PAYLOAD,2023-05-21 21:35:12,15.08830917,6.27e-05,53.2159,315.6055,85.8095,274.2969,-6.6958e-05,-1.353e-05,0.0,0 STARLINK-3871,1 52496U 22049AX  23141.89944646 -.00001353  00000-0 -66958-4 0  9996,2 52496  53.2159 315.6055 0000627  85.8095 274.2969 15.08830917 58057,6917.908,95.438,540.207,539.339,0.0
52496.0,STARLINK-3871,PAYLOAD,2023-05-22 11:53:40,15.08845156,5.69e-05,53.2164,312.9294,78.28,281.8256,0.00027461,4.086e-05,0.0,0 STARLINK-3871,1 52496U 22049AX  23142.49560290  .00004086  00000-0  27461-3 0  9991,2 52496  53.2164 312.9294 0000569  78.2800 281.8256 15.08845156 58147,6917.865,95.437,540.123,539.336,0.0
52496.0,STARLINK-3871,PAYLOAD,2023-05-22 18:15:12,15.08858048,5.95e-05,53.2158,311.7406,78.103,282.0029,0.00052533,8.087e-05,0.0,0 STARLINK-3871,1 52496U 22049AX  23142.76055818  .00008087  00000-0  52533-3 0  9999,2 52496  53.2158 311.7406 0000595  78.1030 282.0029 15.08858048 58184,6917.825,95.436,540.102,539.279,0.0
52496.0,STARLINK-3871,PAYLOAD,2023-05-23 02:12:08,15.08831717,6.97e-05,53.2159,310.2532,118.3098,241.7965,3.4506e-06,-2.33e-06,0.0,0 STARLINK-3871,1 52496U 22049AX  23143.09176444 -.00000233  00000-0  34506-5 0  9993,2 52496  53.2159 310.2532 0000697 118.3098 241.7965 15.08831717 58234,6917.906,95.438,540.253,539.289,0.0
